ONEWEB-0492             
1 54114U 22138B   24354.18873579  .00000101  00000+0  21893-3 0  9994
2 54114  87.9178  53.3389 0001615 106.3587 253.7723 13.19728816104955
ONEWEB-0495             
1 54115U 22138C   24354.24244294  .00000053  00000+0  10001-3 0  9993
2 54115  87.9178  53.3397 0001072  85.9263 274.1992 13.19727640104943
ONEWEB-0497             
1 54116U 22138D   24354.25506901  .00000052  00000+0  98453-4 0  9998
2 54116  87.9172  53.3171 0001694 100.1433 259.9891 13.19728837104934
ONEWEB-0499             
1 54117U 22138E   24354.23770800  .00000019  00000+0  14186-4 0  9992
2 54117  87.9177  53.3302 0001869  86.3706 273.7640 13.19727189104944
ONEWEB-0500             
1 54118U 22138F   24354.24086506  .00000013  00000+0 -78833-6 0  9993
2 54118  87.9175  53.3199 0001757 102.3945 257.7384 13.19727145104957
ONEWEB-0501             
1 54119U 22138G   24354.19506472  .00000173  00000+0  39911-3 0  9994
2 54119  87.9171  53.3243 0001433  88.5101 271.6196 13.19727277104923
ONEWEB-0502             
1 54120U 22138H   24354.25664896  .00000026  00000+0  32700-4 0  9995
2 54120  87.9171  53.2992 0001593  90.0187 270.1128 13.19729651104954
ONEWEB-0503             
1 54121U 22138J   24354.39723702  .00000022  00000+0  21551-4 0  9991
2 54121  87.9173  53.2771 0002034  92.7722 267.3643 13.19724002105830
